SL-3 R/B                
1 13403U 82079B   26025.08380821  .00008464  00000+0  34369-3 0  9991
2 13403  81.1445 244.5483 0024561 315.8587  44.0685 15.24173877371059
SL-14 R/B               
1 13553U 82092B   26024.83992941  .00000935  00000+0  10226-3 0  9997
2 13553  82.5682 182.4012 0021880  87.0224  46.5984 14.86610029322415
SL-3 R/B                
1 13819U 83010B   26025.12480997  .00018754  00000+0  39716-3 0  9992
2 13819  81.1020  55.6031 0016759 193.7419 166.3371 15.44821633351214
SL-3 R/B                
1 14208U 83075B   26025.09131946  .00017400  00000+0  47488-3 0  9991
2 14208  97.6129  28.0675 0023266  30.4332 329.8257 15.37222805323451
COSMOS 1536             
1 14699U 84013A   26024.78030807  .00009355  00000+0  39305-3 0  9996
2 14699  82.5470 151.4625 0015706  78.5953 281.7047 15.23178960265933
SL-14 R/B               
1 14820U 84027B   26025.12517036  .00000854  00000+0  94768-4 0  9990
2 14820  82.5423 285.8758 0019375 115.4453 244.8771 14.85930289241168
SL-8 R/B                
1 15483U 85006B   26025.16065264  .00000582  00000+0  20154-3 0  9994
2 15483  74.0473 341.2414 0019772 266.6653 104.1196 14.37757048147771
SL-12 R/B(2)            
1 15772U 85042D   26025.17179852  .00000192  00000+0  10793-3 0  9990
2 15772  71.1071 179.6652 0035843 196.8897 335.9847 14.21967515108209
SL-14 R/B               
1 15945U 85069B   26025.12315720  .00000820  00000+0  90043-4 0  9997
2 15945  82.5245  65.9115 0018235 341.4367  18.6182 14.86379640166362
SL-16 R/B               
1 16182U 85097B   26025.01240054 -.00000009  00000+0  19606-4 0  9993
2 16182  71.0000 232.5035 0008997 311.2726 199.6085 14.16590886 81042
SL-14 R/B               
1 16496U 86006B   26025.04426732  .00001400  00000+0  14597-3 0  9992
2 16496  82.5287 300.8113 0078042  57.9854 302.8914 14.86745126142722
COSMOS 1743             
1 16719U 86034A   26024.68001363  .00041589  00000+0  61234-3 0  9991
2 16719  82.5344 119.8953 0005377  95.7555 264.4312 15.55229831173404
