CCSDS_OMM_VERS = 2.0
CREATION_DATE  = 
ORIGINATOR     = 

OBJECT_NAME    = SL-3 R/B
OBJECT_ID      = 1982-079B
CENTER_NAME    = EARTH
REF_FRAME      = TEME
TIME_SYSTEM    = UTC
MEAN_ELEMENT_THEORY = SGP/SGP4

EPOCH          = 2026-01-25T02:00:41.029344
MEAN_MOTION    = 15.24173877
ECCENTRICITY   = .0024561
INCLINATION    = 81.1445
RA_OF_ASC_NODE = 244.5483
ARG_OF_PERICENTER = 315.8587
MEAN_ANOMALY   = 44.0685

EPHEMERIS_TYPE = 0
CLASSIFICATION_TYPE = U
NORAD_CAT_ID   = 13403
ELEMENT_SET_NO = 999
REV_AT_EPOCH   = 37105
BSTAR          = .34369E-3
MEAN_MOTION_DOT = .8464E-4
MEAN_MOTION_DDOT = 0

CCSDS_OMM_VERS = 2.0
CREATION_DATE  = 
ORIGINATOR     = 

OBJECT_NAME    = SL-14 R/B
OBJECT_ID      = 1982-092B
CENTER_NAME    = EARTH
REF_FRAME      = TEME
TIME_SYSTEM    = UTC
MEAN_ELEMENT_THEORY = SGP/SGP4

EPOCH          = 2026-01-24T20:09:29.901024
MEAN_MOTION    = 14.86610029
ECCENTRICITY   = .00218804
INCLINATION    = 82.5682
RA_OF_ASC_NODE = 182.4012
ARG_OF_PERICENTER = 87.0224
MEAN_ANOMALY   = 46.5984

EPHEMERIS_TYPE = 0
CLASSIFICATION_TYPE = U
NORAD_CAT_ID   = 13553
ELEMENT_SET_NO = 999
REV_AT_EPOCH   = 32241
BSTAR          = .10225809E-3
MEAN_MOTION_DOT = .935E-5
MEAN_MOTION_DDOT = 0

CCSDS_OMM_VERS = 2.0
CREATION_DATE  = 
ORIGINATOR     = 

OBJECT_NAME    = SL-3 R/B
OBJECT_ID      = 1983-010B
CENTER_NAME    = EARTH
REF_FRAME      = TEME
TIME_SYSTEM    = UTC
MEAN_ELEMENT_THEORY = SGP/SGP4

EPOCH          = 2026-01-25T02:59:43.581408
MEAN_MOTION    = 15.44821633
ECCENTRICITY   = .0016759
INCLINATION    = 81.1020
RA_OF_ASC_NODE = 55.6031
ARG_OF_PERICENTER = 193.7419
MEAN_ANOMALY   = 166.3371

EPHEMERIS_TYPE = 0
CLASSIFICATION_TYPE = U
NORAD_CAT_ID   = 13819
ELEMENT_SET_NO = 999
REV_AT_EPOCH   = 35121
BSTAR          = .39716E-3
MEAN_MOTION_DOT = .18754E-3
MEAN_MOTION_DDOT = 0

CCSDS_OMM_VERS = 2.0
CREATION_DATE  = 
ORIGINATOR     = 

OBJECT_NAME    = SL-3 R/B
OBJECT_ID      = 1983-075B
CENTER_NAME    = EARTH
REF_FRAME      = TEME
TIME_SYSTEM    = UTC
MEAN_ELEMENT_THEORY = SGP/SGP4

EPOCH          = 2026-01-25T02:11:30.001344
MEAN_MOTION    = 15.37222805
ECCENTRICITY   = .0023266
INCLINATION    = 97.6129
RA_OF_ASC_NODE = 28.0675
ARG_OF_PERICENTER = 30.4332
MEAN_ANOMALY   = 329.8257

EPHEMERIS_TYPE = 0
CLASSIFICATION_TYPE = U
NORAD_CAT_ID   = 14208
ELEMENT_SET_NO = 999
REV_AT_EPOCH   = 32345
BSTAR          = .47488E-3
MEAN_MOTION_DOT = .174E-3
MEAN_MOTION_DDOT = 0

CCSDS_OMM_VERS = 2.0
CREATION_DATE  = 
ORIGINATOR     = 

OBJECT_NAME    = COSMOS 1536
OBJECT_ID      = 1984-013A
CENTER_NAME    = EARTH
REF_FRAME      = TEME
TIME_SYSTEM    = UTC
MEAN_ELEMENT_THEORY = SGP/SGP4

EPOCH          = 2026-01-24T18:43:38.617248
MEAN_MOTION    = 15.23178960
ECCENTRICITY   = .00157064
INCLINATION    = 82.5470
RA_OF_ASC_NODE = 151.4625
ARG_OF_PERICENTER = 78.5953
MEAN_ANOMALY   = 281.7047

EPHEMERIS_TYPE = 0
CLASSIFICATION_TYPE = U
NORAD_CAT_ID   = 14699
ELEMENT_SET_NO = 999
REV_AT_EPOCH   = 26593
BSTAR          = .39305434E-3
MEAN_MOTION_DOT = .9355E-4
MEAN_MOTION_DDOT = 0

CCSDS_OMM_VERS = 2.0
CREATION_DATE  = 
ORIGINATOR     = 

OBJECT_NAME    = SL-14 R/B
OBJECT_ID      = 1984-027B
CENTER_NAME    = EARTH
REF_FRAME      = TEME
TIME_SYSTEM    = UTC
MEAN_ELEMENT_THEORY = SGP/SGP4

EPOCH          = 2026-01-25T03:00:14.719104
MEAN_MOTION    = 14.85930289
ECCENTRICITY   = .0019375
INCLINATION    = 82.5423
RA_OF_ASC_NODE = 285.8758
ARG_OF_PERICENTER = 115.4453
MEAN_ANOMALY   = 244.8771

EPHEMERIS_TYPE = 0
CLASSIFICATION_TYPE = U
NORAD_CAT_ID   = 14820
ELEMENT_SET_NO = 999
REV_AT_EPOCH   = 24116
BSTAR          = .94768E-4
MEAN_MOTION_DOT = .854E-5
MEAN_MOTION_DDOT = 0

CCSDS_OMM_VERS = 2.0
CREATION_DATE  = 
ORIGINATOR     = 

OBJECT_NAME    = SL-8 R/B
OBJECT_ID      = 1985-006B
CENTER_NAME    = EARTH
REF_FRAME      = TEME
TIME_SYSTEM    = UTC
MEAN_ELEMENT_THEORY = SGP/SGP4

EPOCH          = 2026-01-25T03:51:20.388096
MEAN_MOTION    = 14.37757048
ECCENTRICITY   = .0019772
INCLINATION    = 74.0473
RA_OF_ASC_NODE = 341.2414
ARG_OF_PERICENTER = 266.6653
MEAN_ANOMALY   = 104.1196

EPHEMERIS_TYPE = 0
CLASSIFICATION_TYPE = U
NORAD_CAT_ID   = 15483
ELEMENT_SET_NO = 999
REV_AT_EPOCH   = 14777
BSTAR          = .20154E-3
MEAN_MOTION_DOT = .582E-5
MEAN_MOTION_DDOT = 0

CCSDS_OMM_VERS = 2.0
CREATION_DATE  = 
ORIGINATOR     = 

OBJECT_NAME    = SL-12 R/B(2)
OBJECT_ID      = 1985-042D
CENTER_NAME    = EARTH
REF_FRAME      = TEME
TIME_SYSTEM    = UTC
MEAN_ELEMENT_THEORY = SGP/SGP4

EPOCH          = 2026-01-25T04:07:23.392128
MEAN_MOTION    = 14.21967515
ECCENTRICITY   = .0035843
INCLINATION    = 71.1071
RA_OF_ASC_NODE = 179.6652
ARG_OF_PERICENTER = 196.8897
MEAN_ANOMALY   = 335.9847

EPHEMERIS_TYPE = 0
CLASSIFICATION_TYPE = U
NORAD_CAT_ID   = 15772
ELEMENT_SET_NO = 999
REV_AT_EPOCH   = 10820
BSTAR          = .10793E-3
MEAN_MOTION_DOT = .192E-5
MEAN_MOTION_DDOT = 0

CCSDS_OMM_VERS = 2.0
CREATION_DATE  = 
ORIGINATOR     = 

OBJECT_NAME    = SL-14 R/B
OBJECT_ID      = 1985-069B
CENTER_NAME    = EARTH
REF_FRAME      = TEME
TIME_SYSTEM    = UTC
MEAN_ELEMENT_THEORY = SGP/SGP4

EPOCH          = 2026-01-25T02:57:20.782080
MEAN_MOTION    = 14.86379640
ECCENTRICITY   = .0018235
INCLINATION    = 82.5245
RA_OF_ASC_NODE = 65.9115
ARG_OF_PERICENTER = 341.4367
MEAN_ANOMALY   = 18.6182

EPHEMERIS_TYPE = 0
CLASSIFICATION_TYPE = U
NORAD_CAT_ID   = 15945
ELEMENT_SET_NO = 999
REV_AT_EPOCH   = 16636
BSTAR          = .90043E-4
MEAN_MOTION_DOT = .82E-5
MEAN_MOTION_DDOT = 0

CCSDS_OMM_VERS = 2.0
CREATION_DATE  = 
ORIGINATOR     = 

OBJECT_NAME    = SL-16 R/B
OBJECT_ID      = 1985-097B
CENTER_NAME    = EARTH
REF_FRAME      = TEME
TIME_SYSTEM    = UTC
MEAN_ELEMENT_THEORY = SGP/SGP4

EPOCH          = 2026-01-25T00:17:51.406656
MEAN_MOTION    = 14.16590886
ECCENTRICITY   = .0008997
INCLINATION    = 71.0000
RA_OF_ASC_NODE = 232.5035
ARG_OF_PERICENTER = 311.2726
MEAN_ANOMALY   = 199.6085

EPHEMERIS_TYPE = 0
CLASSIFICATION_TYPE = U
NORAD_CAT_ID   = 16182
ELEMENT_SET_NO = 999
REV_AT_EPOCH   = 8104
BSTAR          = .19606E-4
MEAN_MOTION_DOT = -.9E-7
MEAN_MOTION_DDOT = 0

CCSDS_OMM_VERS = 2.0
CREATION_DATE  = 
ORIGINATOR     = 

OBJECT_NAME    = SL-14 R/B
OBJECT_ID      = 1986-006B
CENTER_NAME    = EARTH
REF_FRAME      = TEME
TIME_SYSTEM    = UTC
MEAN_ELEMENT_THEORY = SGP/SGP4

EPOCH          = 2026-01-25T01:03:44.696448
MEAN_MOTION    = 14.86745126
ECCENTRICITY   = .0078042
INCLINATION    = 82.5287
RA_OF_ASC_NODE = 300.8113
ARG_OF_PERICENTER = 57.9854
MEAN_ANOMALY   = 302.8914

EPHEMERIS_TYPE = 0
CLASSIFICATION_TYPE = U
NORAD_CAT_ID   = 16496
ELEMENT_SET_NO = 999
REV_AT_EPOCH   = 14272
BSTAR          = .14597E-3
MEAN_MOTION_DOT = .14E-4
MEAN_MOTION_DDOT = 0

CCSDS_OMM_VERS = 2.0
CREATION_DATE  = 
ORIGINATOR     = 

OBJECT_NAME    = COSMOS 1743
OBJECT_ID      = 1986-034A
CENTER_NAME    = EARTH
REF_FRAME      = TEME
TIME_SYSTEM    = UTC
MEAN_ELEMENT_THEORY = SGP/SGP4

EPOCH          = 2026-01-24T16:19:13.177632
MEAN_MOTION    = 15.55229831
ECCENTRICITY   = .00053779
INCLINATION    = 82.5344
RA_OF_ASC_NODE = 119.8953
ARG_OF_PERICENTER = 95.7555
MEAN_ANOMALY   = 264.4312

EPHEMERIS_TYPE = 0
CLASSIFICATION_TYPE = U
NORAD_CAT_ID   = 16719
ELEMENT_SET_NO = 999
REV_AT_EPOCH   = 17340
BSTAR          = .61234482E-3
MEAN_MOTION_DOT = .41589E-3
MEAN_MOTION_DDOT = 0

